{
    "links": {
        "self": "http://www.neowsapp.com/rest/v1/neo/3743611?api_key=iIulBulltgU6a56xZRHN4H3l9WmuAYTsLGpBGhQ2"
    },
    "id": "3743611",
    "neo_reference_id": "3743611",
    "name": "(2016 CD194)",
    "designation": "2016 CD194",
    "nasa_jpl_url": "http://ssd.jpl.nasa.gov/sbdb.cgi?sstr=3743611",
    "absolute_magnitude_h": 23.8,
    "estimated_diameter": {
        "kilometers": {
            "estimated_diameter_min": 0.046190746,
            "estimated_diameter_max": 0.1032856481
        },
        "meters": {
            "estimated_diameter_min": 46.1907460282,
            "estimated_diameter_max": 103.2856480504
        },
        "miles": {
            "estimated_diameter_min": 0.0287015901,
            "estimated_diameter_max": 0.0641787064
        },
        "feet": {
            "estimated_diameter_min": 151.544447199,
            "estimated_diameter_max": 338.8636855496
        }
    },
    "is_potentially_hazardous_asteroid": false,
    "close_approach_data": [
        {
            "close_approach_date": "2016-02-13",
            "close_approach_date_full": "2016-Feb-13 21:10",
            "epoch_date_close_approach": 1455397800000,
            "relative_velocity": {
                "kilometers_per_second": "14.6446468723",
                "kilometers_per_hour": "52720.7287404035",
                "miles_per_hour": "32758.6105887246"
            },
            "miss_distance": {
                "astronomical": "0.1158178298",
                "lunar": "45.0531357922",
                "kilometers": "17326100.646102526",
                "miles": "10765939.7182298188"
            },
            "orbiting_body": "Earth"
        }
    ],
    "orbital_data": {
        "orbit_id": "7",
        "orbit_determination_date": "2017-04-06 08:28:21",
        "first_observation_date": "2016-02-03",
        "last_observation_date": "2016-02-18",
        "data_arc_in_days": 15,
        "observations_used": 33,
        "orbit_uncertainty": "7",
        "minimum_orbit_intersection": ".10627",
        "jupiter_tisserand_invariant": "3.957",
        "epoch_osculation": "2459000.5",
        "eccentricity": ".391089660163601",
        "semi_major_axis": "1.743771530631691",
        "inclination": "24.07459847914388",
        "ascending_node_longitude": "321.783110874299",
        "orbital_period": "841.0712759268454",
        "perihelion_distance": "1.061800515313981",
        "perihelion_argument": "208.7077456754283",
        "aphelion_distance": "2.425742545949402",
        "perihelion_time": "2459136.579357507126",
        "mean_anomaly": "301.7545574260865",
        "mean_motion": ".4280255553886161",
        "equinox": "J2000",
        "orbit_class": {
            "orbit_class_type": "AMO",
            "orbit_class_description": "Near-Earth asteroid orbits similar to that of 1221 Amor",
            "orbit_class_range": "1.017 AU < q (perihelion) < 1.3 AU"
        }
    },
    "is_sentry_object": false
}